NORAD_CAT_ID,OBJECT_NAME,OBJECT_TYPE,EPOCH,MEAN_MOTION,ECCENTRICITY,INCLINATION,RA_OF_ASC_NODE,ARG_OF_PERICENTER,MEAN_ANOMALY,BSTAR,MEAN_MOTION_DOT,MEAN_MOTION_DDOT,TLE_LINE0,TLE_LINE1,TLE_LINE2,SEMIMAJOR_AXIS,PERIOD,APOGEE,PERIGEE,DECAYED
53288.0,STARLINK-4162,PAYLOAD,2023-10-04 04:16:38,15.08844002,0.000141,53.2154,208.3112,88.4334,271.6819,0.00019043,2.744e-05,0.0,0 STARLINK-4162,1 53288U 22086AY  23277.17822664  .00002744  00000-0  19043-3 0  9998,2 53288  53.2154 208.3112 0001410  88.4334 271.6819 15.08844002 67044,6917.868,95.437,540.709,538.758,0.0
53288.0,STARLINK-4162,PAYLOAD,2023-10-04 12:13:34,15.0883854,0.0001431,53.2158,206.8237,84.0667,276.0488,0.00010437,1.373e-05,0.0,0 STARLINK-4162,1 53288U 22086AY  23277.50942926  .00001373  00000-0  10437-3 0  9994,2 53288  53.2158 206.8237 0001431  84.0667 276.0488 15.08838540 67257,6917.885,95.438,540.74,538.76,0.0
53288.0,STARLINK-4162,PAYLOAD,2023-10-05 02:32:02,15.08852762,0.0001498,53.2155,204.1542,108.3948,251.7207,0.00029913,4.478e-05,0.0,0 STARLINK-4162,1 53288U 22086AY  23278.10558351  .00004478  00000-0  29913-3 0  9994,2 53288  53.2155 204.1542 0001498 108.3948 251.7207 15.08852762 67182,6917.841,95.437,540.743,538.67,0.0
53288.0,STARLINK-4162,PAYLOAD,2023-10-05 05:42:48,15.0886584,0.0001304,53.2152,203.5541,96.717,263.397,0.0005111,7.861e-05,0.0,0 STARLINK-4162,1 53288U 22086AY  23278.23805676  .00007861  00000-0  51110-3 0  9996,2 53288  53.2152 203.5541 0001304  96.7170 263.3970 15.08865840 67204,6917.801,95.436,540.568,538.764,0.0
53288.0,STARLINK-4162,PAYLOAD,2023-10-06 02:22:49,15.0884592,0.0001424,53.2158,199.6863,85.323,274.7925,0.0001241,1.688e-05,0.0,0 STARLINK-4162,1 53288U 22086AY  23279.09918424  .00001688  00000-0  12410-3 0  9998,2 53288  53.2158 199.6863 0001424  85.3230 274.7925 15.08845920 67333,6917.862,95.437,540.712,538.742,0.0
53288.0,STARLINK-4162,PAYLOAD,2023-10-06 11:55:08,15.08838318,0.0001443,53.214,197.9055,97.6662,262.4494,4.1153e-05,3.67e-06,0.0,0 STARLINK-4162,1 53288U 22086AY  23279.49662746  .00000367  00000-0  41153-4 0  9995,2 53288  53.2140 197.9055 0001443  97.6662 262.4494 15.08838318 67556,6917.886,95.438,540.749,538.752,0.0
53288.0,STARLINK-4162,PAYLOAD,2023-10-07 00:38:14,15.08826183,0.0001596,53.2145,195.5254,106.5698,253.5469,0.00067719,0.00010502,0.0,0 STARLINK-4162,1 53288U 22086AY  23280.02655332  .00010502  00000-0  67719-3 0  9996,2 53288  53.2145 195.5254 0001596 106.5698 253.5469 15.08826183 67475,6917.923,95.438,540.892,538.684,0.0
53288.0,STARLINK-4162,PAYLOAD,2023-10-07 02:13:36,15.08846112,0.000123,53.2145,195.2278,116.5109,243.6009,0.00075698,0.00011782,0.0,0 STARLINK-4162,1 53288U 22086AY  23280.09278658  .00011782  00000-0  75698-3 0  9991,2 53288  53.2145 195.2278 0001230 116.5109 243.6009 15.08846112 67486,6917.862,95.437,540.578,538.876,0.0
53288.0,STARLINK-4162,PAYLOAD,2023-10-07 11:45:56,15.08830934,0.000127,53.2142,193.4441,99.6362,260.4774,0.00050178,7.705e-05,0.0,0 STARLINK-4162,1 53288U 22086AY  23280.49023541  .00007705  00000-0  50178-3 0  9990,2 53288  53.2142 193.4441 0001270  99.6362 260.4774 15.08830934 67707,6917.908,95.438,540.652,538.895,0.0
53288.0,STARLINK-4162,PAYLOAD,2023-10-07 18:07:29,15.08836166,0.0001481,53.2144,192.2551,92.5894,267.5268,0.00030264,4.531e-05,0.0,0 STARLINK-4162,1 53288U 22086AY  23280.75519700  .00004531  00000-0  30264-3 0  9994,2 53288  53.2144 192.2551 0001481  92.5894 267.5268 15.08836166 67589,6917.892,95.438,540.782,538.733,0.0
53288.0,STARLINK-4162,PAYLOAD,2023-10-08 03:39:47,15.08852216,0.0001501,53.2148,190.47,95.452,264.6644,0.00074434,0.00011582,0.0,0 STARLINK-4162,1 53288U 22086AY  23281.15263418  .00011582  00000-0  74434-3 0  9992,2 53288  53.2148 190.4700 0001501  95.4520 264.6644 15.08852216 67647,6917.843,95.437,540.746,538.67,0.0
53288.0,STARLINK-4162,PAYLOAD,2023-10-08 11:36:43,15.08842719,0.0001743,53.2156,188.9835,86.9804,273.1388,0.00060418,9.341e-05,0.0,0 STARLINK-4162,1 53288U 22086AY  23281.48383814  .00009341  00000-0  60418-3 0  9998,2 53288  53.2156 188.9835 0001743  86.9804 273.1388 15.08842719 67855,6917.872,95.437,540.943,538.531,0.0
53288.0,STARLINK-4162,PAYLOAD,2023-10-08 21:09:02,15.08854681,0.000157,53.2172,187.2003,78.1613,281.9555,0.00070724,0.0001099,0.0,0 STARLINK-4162,1 53288U 22086AY  23281.88127427  .00010990  00000-0  70724-3 0  9991,2 53288  53.2172 187.2003 0001570  78.1613 281.9555 15.08854681 67912,6917.836,95.437,540.787,538.614,0.0
53288.0,STARLINK-4162,PAYLOAD,2023-10-09 00:19:48,15.08862586,0.0001527,53.2164,186.6038,90.1239,269.9928,0.00090393,0.00014136,0.0,0 STARLINK-4162,1 53288U 22086AY  23282.01375140  .00014136  00000-0  90393-3 0  9994,2 53288  53.2164 186.6038 0001527  90.1239 269.9928 15.08862586 67771,6917.811,95.436,540.733,538.62,0.0
53288.0,STARLINK-4162,PAYLOAD,2023-10-09 17:49:02,15.08852082,0.0001145,53.2152,183.3333,95.4294,264.6828,0.00072196,0.00011224,0.0,0 STARLINK-4162,1 53288U 22086AY  23282.74239385  .00011224  00000-0  72196-3 0  9990,2 53288  53.2152 183.3333 0001145  95.4294 264.6828 15.08852082 67888,6917.843,95.437,540.501,538.916,0.0
53288.0,STARLINK-4162,PAYLOAD,2023-10-09 22:35:12,15.08851679,0.0001407,53.2159,182.4413,102.2956,257.8194,0.0013171,0.00020742,0.0,0 STARLINK-4162,1 53288U 22086AY  23282.94111449  .00020742  00000-0  13171-2 0  9994,2 53288  53.2159 182.4413 0001407 102.2956 257.8194 15.08851679 68070,6917.845,95.437,540.683,538.736,0.0
53288.0,STARLINK-4162,PAYLOAD,2023-10-10 03:21:21,15.08851297,0.0001365,53.2165,181.5495,90.7111,269.4037,0.0011918,0.00018736,0.0,0 STARLINK-4162,1 53288U 22086AY  23283.13983390  .00018736  00000-0  11918-2 0  9995,2 53288  53.2165 181.5495 0001365  90.7111 269.4037 15.08851297 68109,6917.846,95.437,540.655,538.767,0.0
53288.0,STARLINK-4162,PAYLOAD,2023-10-10 17:39:50,15.08845197,0.0001457,53.2167,178.8723,103.6371,256.4784,0.00075587,0.00011764,0.0,0 STARLINK-4162,1 53288U 22086AY  23283.73599861  .00011764  00000-0  75587-3 0  9994,2 53288  53.2167 178.8723 0001457 103.6371 256.4784 15.08845197 68037,6917.865,95.437,540.737,538.722,0.0
53288.0,STARLINK-4162,PAYLOAD,2023-10-10 22:25:59,15.08838306,0.0001414,53.2166,177.9808,95.1092,265.0061,0.00088977,0.000139,0.0,0 STARLINK-4162,1 53288U 22086AY  23283.93472051  .00013900  00000-0  88977-3 0  9998,2 53288  53.2166 177.9808 0001414  95.1092 265.0061 15.08838306 68227,6917.886,95.438,540.729,538.772,0.0
53288.0,STARLINK-4162,PAYLOAD,2023-10-11 09:33:41,15.08846026,0.000131,53.2155,175.9018,81.7324,278.3817,0.00068878,0.00010693,0.0,0 STARLINK-4162,1 53288U 22086AY  23284.39840010  .00010693  00000-0  68878-3 0  9997,2 53288  53.2155 175.9018 0001310  81.7324 278.3817 15.08846026 68134,6917.862,95.437,540.633,538.821,0.0
53288.0,STARLINK-4162,PAYLOAD,2023-10-12 03:02:56,15.08852348,0.0001485,53.2158,172.6301,82.327,277.7891,0.0017801,0.00028166,0.0,0 STARLINK-4162,1 53288U 22086AY  23285.12704324  .00028166  00000-0  17801-2 0  9999,2 53288  53.2158 172.6301 0001485  82.3270 277.7891 15.08852348 68247,6917.843,95.437,540.735,538.68,0.0
53288.0,STARLINK-4162,PAYLOAD,2023-10-12 09:24:29,15.08846563,0.0001454,53.2155,171.438,80.1342,279.9815,0.00057761,8.918e-05,0.0,0 STARLINK-4162,1 53288U 22086AY  23285.39200365  .00008918  00000-0  57761-3 0  9997,2 53288  53.2155 171.4380 0001454  80.1342 279.9815 15.08846563 68444,6917.86,95.437,540.731,538.719,0.0
53288.0,STARLINK-4162,PAYLOAD,2023-10-12 20:32:10,15.08850905,0.0001565,53.2159,169.3575,88.2543,271.8629,0.00055764,8.601e-05,0.0,0 STARLINK-4162,1 53288U 22086AY  23285.85568238  .00008601  00000-0  55764-3 0  9994,2 53288  53.2159 169.3575 0001565  88.2543 271.8629 15.08850905 68354,6917.847,95.437,540.795,538.629,0.0
53288.0,STARLINK-4162,PAYLOAD,2023-10-12 22:07:33,15.08856555,0.0001528,53.2155,169.0612,97.231,262.8856,0.00072405,0.00011259,0.0,0 STARLINK-4162,1 53288U 22086AY  23285.92192079  .00011259  00000-0  72405-3 0  9992,2 53288  53.2155 169.0612 0001528  97.2310 262.8856 15.08856555 68528,6917.83,95.437,540.752,538.638,0.0
53288.0,STARLINK-4162,PAYLOAD,2023-10-13 09:15:15,15.08852506,0.0001855,53.216,166.9797,83.709,276.4113,0.00045759,7.004e-05,0.0,0 STARLINK-4162,1 53288U 22086AY  23286.38559982  .00007004  00000-0  45759-3 0  9998,2 53288  53.2160 166.9797 0001855  83.7090 276.4113 15.08852506 68598,6917.842,95.437,540.99,538.424,0.0
53288.0,STARLINK-4162,PAYLOAD,2023-10-13 20:22:57,15.08850056,0.0001116,53.2157,164.8991,92.1511,267.9609,0.00045283,6.928e-05,0.0,0 STARLINK-4162,1 53288U 22086AY  23286.84927718  .00006928  00000-0  45283-3 0  9991,2 53288  53.2157 164.8991 0001116  92.1511 267.9609 15.08850056 68503,6917.85,95.437,540.487,538.943,0.0
53288.0,STARLINK-4162,PAYLOAD,2023-10-13 21:58:20,15.08855127,0.0001451,53.2155,164.601,86.196,273.9198,0.00060943,9.428e-05,0.0,0 STARLINK-4162,1 53288U 22086AY  23286.91551727  .00009428  00000-0  60943-3 0  9990,2 53288  53.2155 164.6010 0001451  86.1960 273.9198 15.08855127 68676,6917.834,95.437,540.703,538.695,0.0
53288.0,STARLINK-4162,PAYLOAD,2023-10-14 09:06:02,15.08844785,0.0001323,53.2143,162.5175,97.8576,262.2566,0.00054809,8.447e-05,0.0,0 STARLINK-4162,1 53288U 22086AY  23287.37919877  .00008447  00000-0  54809-3 0  9999,2 53288  53.2143 162.5175 0001323  97.8576 262.2566 15.08844785 68580,6917.866,95.437,540.646,538.816,0.0
53288.0,STARLINK-4162,PAYLOAD,2023-10-14 20:13:45,15.08837204,0.0001272,53.2145,160.4382,106.9933,253.1199,0.0003492,5.274e-05,0.0,0 STARLINK-4162,1 53288U 22086AY  23287.84288269  .00005274  00000-0  34920-3 0  9992,2 53288  53.2145 160.4382 0001272 106.9933 253.1199 15.08837204 68658,6917.889,95.438,540.634,538.874,0.0
53288.0,STARLINK-4162,PAYLOAD,2023-10-14 21:49:08,15.08828985,0.0001366,53.214,160.1397,100.8361,259.2785,0.00061099,9.446e-05,0.0,0 STARLINK-4162,1 53288U 22086AY  23287.90912441  .00009446  00000-0  61099-3 0  9997,2 53288  53.2140 160.1397 0001366 100.8361 259.2785 15.08828985 68821,6917.914,95.438,540.724,538.834,0.0
